NORAD_CAT_ID,OBJECT_NAME,OBJECT_TYPE,EPOCH,MEAN_MOTION,ECCENTRICITY,INCLINATION,RA_OF_ASC_NODE,ARG_OF_PERICENTER,MEAN_ANOMALY,BSTAR,MEAN_MOTION_DOT,MEAN_MOTION_DDOT,TLE_LINE0,TLE_LINE1,TLE_LINE2,SEMIMAJOR_AXIS,PERIOD,APOGEE,PERIGEE,DECAYED
49161.0,STARLINK-3080,PAYLOAD,2022-05-14 06:00:00,14.98338876,0.0003212,70.0023,212.8421,267.0392,3.3526,0.00011919,1.33e-05,0.0,0 STARLINK-3080,1 49161U 21082AH  22134.25001157  .00001330  00000-0  11919-3 0  9998,2 49161  70.0023 212.8421 0003212 267.0392   3.3526 14.98338876 38021,6950.165,96.106,574.263,569.798,0.0
49161.0,STARLINK-3080,PAYLOAD,2022-05-14 14:00:01,14.98325801,0.0003198,70.0023,212.0016,273.5566,354.3367,0.0021056,0.00025118,0.0,0 STARLINK-3080,1 49161U 21082AH  22134.58334491  .00025118  00000-0  21056-2 0  9996,2 49161  70.0023 212.0016 0003198 273.5566 354.3367 14.98325801  1308,6950.206,96.107,574.294,569.8480000000002,0.0
49161.0,STARLINK-3080,PAYLOAD,2022-05-14 22:00:00,14.9832741,0.0003137,70.0018,211.1612,270.4727,354.9136,-0.0014686,-0.00017571,0.0,0 STARLINK-3080,1 49161U 21082AH  22134.91667824 -.00017571  00000-0 -14686-2 0  9999,2 49161  70.0018 211.1612 0003137 270.4727 354.9136 14.98327410  1300,6950.201,96.107,574.246,569.886,0.0
49161.0,STARLINK-3080,PAYLOAD,2022-05-15 06:00:00,14.98351582,0.0003221,70.0021,210.3209,266.2851,356.56,-0.0032711,-0.0003893,0.0,0 STARLINK-3080,1 49161U 21082AH  22135.25001157 -.00038930  00000-0 -32711-2 0  9999,2 49161  70.0021 210.3209 0003221 266.2851 356.5600 14.98351582 38178,6950.126,96.106,574.23,569.753,0.0
49161.0,STARLINK-3080,PAYLOAD,2022-05-15 14:00:01,14.982871,0.0003325,70.002,209.4803,272.8132,347.5922,0.0033799,0.00040425,0.0,0 STARLINK-3080,1 49161U 21082AH  22135.58335648  .00040425  00000-0  33799-2 0  9997,2 49161  70.0020 209.4803 0003325 272.8132 347.5922 14.98287100  1302,6950.326,96.11,574.502,569.88,0.0
49161.0,STARLINK-3080,PAYLOAD,2022-05-15 22:00:00,14.98320088,0.0003357,70.0016,208.6399,269.8321,347.9708,-0.00079578,-9.573e-05,0.0,0 STARLINK-3080,1 49161U 21082AH  22135.91667824 -.00009573  00000-0 -79578-3 0  9995,2 49161  70.0016 208.6399 0003357 269.8321 347.9708 14.98320088  1308,6950.224,96.108,574.422,569.755,0.0
49161.0,STARLINK-3080,PAYLOAD,2022-05-16 06:00:02,14.98340633,0.0003396,70.0018,207.7997,266.4562,348.8647,-0.00054789,-6.626e-05,0.0,0 STARLINK-3080,1 49161U 21082AH  22136.25002315 -.00006626  00000-0 -54789-3 0  9994,2 49161  70.0018 207.7997 0003396 266.4562 348.8647 14.98340633 38329,6950.16,96.106,574.385,569.665,0.0
49161.0,STARLINK-3080,PAYLOAD,2022-05-16 14:00:01,14.98319854,0.0003368,70.0015,206.9592,272.5405,340.2089,0.0012167,0.00014451,0.0,0 STARLINK-3080,1 49161U 21082AH  22136.58334491  .00014451  00000-0  12167-2 0  9999,2 49161  70.0015 206.9592 0003368 272.5405 340.2089 14.98319854  1306,6950.224,96.108,574.43,569.748,0.0
49161.0,STARLINK-3080,PAYLOAD,2022-05-16 22:00:00,14.9831826,0.0003326,70.0012,206.1188,269.58,340.6577,-0.0011644,-0.00013955,0.0,0 STARLINK-3080,1 49161U 21082AH  22136.91667824 -.00013955  00000-0 -11644-2 0  9994,2 49161  70.0012 206.1188 0003326 269.5800 340.6577 14.98318260  1301,6950.229,96.108,574.406,569.783,0.0
49161.0,STARLINK-3080,PAYLOAD,2022-05-17 12:00:00,14.98314954,0.0003356,70.0011,204.6484,271.6011,244.2143,0.0018591,0.00022152,0.0,0 STARLINK-3080,1 49161U 21082AH  22137.50001157  .00022152  00000-0  18591-2 0  9996,2 49161  70.0011 204.6484 0003356 271.6011 244.2143 14.98314954 38510,6950.239000000001,96.108,574.437,569.7719999999998,0.0
49161.0,STARLINK-3080,PAYLOAD,2022-05-17 14:00:01,14.983075199999998,0.0003339,70.0011,204.4382,272.9029,332.3456,0.0039577,0.00047424,0.0,0 STARLINK-3080,1 49161U 21082AH  22137.58335648  .00047424  00000-0  39577-2 0  9995,2 49161  70.0011 204.4382 0003339 272.9029 332.3456 14.98307520  1303,6950.262,96.108,574.448,569.807,0.0
49161.0,STARLINK-3080,PAYLOAD,2022-05-17 22:00:01,14.98337154,0.0003313,70.0009,203.5978,269.5087,333.2262,9.9433e-05,1.094e-05,0.0,0 STARLINK-3080,1 49161U 21082AH  22137.91668981  .00001094  00000-0  99433-4 0  9993,2 49161  70.0009 203.5978 0003313 269.5087 333.2262 14.98337154  1300,6950.170999999999,96.107,574.3380000000002,569.7330000000002,0.0
49161.0,STARLINK-3080,PAYLOAD,2022-05-18 14:00:01,14.98309768,0.0003203,70.0007,201.9172,273.7895,323.8777,0.0038811,0.000465,0.0,0 STARLINK-3080,1 49161U 21082AH  22138.58334491  .00046500  00000-0  38811-2 0  9995,2 49161  70.0007 201.9172 0003203 273.7895 323.8777 14.98309768 38674,6950.255,96.108,574.347,569.894,0.0
49161.0,STARLINK-3080,PAYLOAD,2022-05-18 22:00:00,14.98328879,0.0003115,70.0004,201.0768,269.7589,325.3937,-0.0024545,-0.00029257,0.0,0 STARLINK-3080,1 49161U 21082AH  22138.91667824 -.00029257  00000-0 -24545-2 0  9992,2 49161  70.0004 201.0768 0003115 269.7589 325.3937 14.98328879  1309,6950.196,96.107,574.226,569.896,0.0
49161.0,STARLINK-3080,PAYLOAD,2022-05-19 06:00:00,14.98337469,0.0003118,70.0007,200.2365,267.6574,324.9547,-0.0020338,-0.00024281,0.0,0 STARLINK-3080,1 49161U 21082AH  22139.25001157 -.00024281  00000-0 -20338-2 0  9999,2 49161  70.0007 200.2365 0003118 267.6574 324.9547 14.98337469 38778,6950.17,96.107,574.202,569.868,0.0
49161.0,STARLINK-3080,PAYLOAD,2022-05-19 14:00:01,14.98301799,0.0003099,70.0005,199.396,274.4809,315.678,0.0040237,0.00048214,0.0,0 STARLINK-3080,1 49161U 21082AH  22139.58335648  .00048214  00000-0  40237-2 0  9990,2 49161  70.0005 199.3960 0003099 274.4809 315.6780 14.98301799  1302,6950.28,96.109,574.299,569.991,0.0
49161.0,STARLINK-3080,PAYLOAD,2022-05-19 22:00:00,14.98320847,0.0003083,70.0002,198.5556,269.6873,317.8908,0.0015319,0.00018229,0.0,0 STARLINK-3080,1 49161U 21082AH  22139.91667824  .00018229  00000-0  15319-2 0  9997,2 49161  70.0002 198.5556 0003083 269.6873 317.8908 14.98320847 38874,6950.221,96.108,574.229,569.943,0.0
49161.0,STARLINK-3080,PAYLOAD,2022-05-20 14:00:01,14.98315245,0.0003057,70.0005,196.8746,274.2473,308.3175,0.001842,0.00021946,0.0,0 STARLINK-3080,1 49161U 21082AH  22140.58334491  .00021946  00000-0  18420-2 0  9999,2 49161  70.0005 196.8746 0003057 274.2473 308.3175 14.98315245  1303,6950.239000000001,96.108,574.2280000000002,569.979,0.0
49161.0,STARLINK-3080,PAYLOAD,2022-05-20 22:00:00,14.98308807,0.0003021,70.0004,196.0343,268.8228,311.2229,0.0020301,0.000242,0.0,0 STARLINK-3080,1 49161U 21082AH  22140.91667824  .00024200  00000-0  20301-2 0  9992,2 49161  70.0004 196.0343 0003021 268.8228 311.2229 14.98308807 39024,6950.2580000000025,96.108,574.2230000000002,570.024,0.0
49161.0,STARLINK-3080,PAYLOAD,2022-05-21 06:00:00,14.98354363,0.0003068,70.0007,195.1937,267.0526,310.4566,-0.0021972,-0.00026228,0.0,0 STARLINK-3080,1 49161U 21082AH  22141.25001157 -.00026228  00000-0 -21972-2 0  9990,2 49161  70.0007 195.1937 0003068 267.0526 310.4566 14.98354363  1302,6950.118,96.105,574.115,569.85,0.0
49161.0,STARLINK-3080,PAYLOAD,2022-05-21 14:00:01,14.98329746,0.0003069,70.0006,194.3532,273.5052,301.5705,0.0016008,0.00019059,0.0,0 STARLINK-3080,1 49161U 21082AH  22141.58335648  .00019059  00000-0  16008-2 0  9997,2 49161  70.0006 194.3532 0003069 273.5052 301.5705 14.98329746  1303,6950.194,96.107,574.192,569.9259999999998,0.0
49161.0,STARLINK-3080,PAYLOAD,2022-05-21 22:00:00,14.98308298,0.0003021,70.0005,193.5127,268.3559,304.164,0.0019388,0.00023104,0.0,0 STARLINK-3080,1 49161U 21082AH  22141.91667824  .00023104  00000-0  19388-2 0  9998,2 49161  70.0005 193.5127 0003021 268.3559 304.1640 14.98308298 39177,6950.26,96.108,574.225,570.025,0.0
49161.0,STARLINK-3080,PAYLOAD,2022-05-22 14:00:01,14.98318112,0.0003094,70.0008,191.8319,273.2002,294.2695,0.0023704,0.00028296,0.0,0 STARLINK-3080,1 49161U 21082AH  22142.58334491  .00028296  00000-0  23704-2 0  9997,2 49161  70.0008 191.8319 0003094 273.2002 294.2695 14.98318112  1301,6950.23,96.108,574.245,569.944,0.0
49161.0,STARLINK-3080,PAYLOAD,2022-05-22 22:00:01,14.98302015,0.0003179,70.0009,190.9914,268.083,296.9474,0.0021332,0.00025434,0.0,0 STARLINK-3080,1 49161U 21082AH  22142.91668981  .00025434  00000-0  21332-2 0  9994,2 49161  70.0009 190.9914 0003179 268.0830 296.9474 14.98302015 39320,6950.279,96.109,574.354,569.935,0.0
49161.0,STARLINK-3080,PAYLOAD,2022-05-23 14:00:01,14.98326673,0.0003062,69.9999,189.326,266.8746,293.0088,0.00054899,6.463e-05,0.0,0 STARLINK-3080,1 49161U 21082AH  22143.58334491  .00006463  00000-0  54899-3 0  9990,2 49161  69.9999 189.3260 0003062 266.8746 293.0088 14.98326673  1306,6950.203,96.107,574.196,569.94,0.0
49161.0,STARLINK-3080,PAYLOAD,2022-05-23 22:00:01,14.98304452,0.000321,70.0011,188.4703,268.0885,289.3613,0.0038267,0.00045837,0.0,0 STARLINK-3080,1 49161U 21082AH  22143.91668981  .00045837  00000-0  38267-2 0  9999,2 49161  70.0011 188.4703 0003210 268.0885 289.3613 14.98304452 39471,6950.272,96.109,574.368,569.906,0.0
49161.0,STARLINK-3080,PAYLOAD,2022-05-24 13:08:40,14.98328839,0.0002996,69.9993,186.8793,269.4869,90.5947,7.593e-05,8.13e-06,0.0,0 STARLINK-3080,1 49161U 21082AH  22144.54768962  .00000813  00000-0  75930-4 0  9994,2 49161  69.9993 186.8793 0002996 269.4869  90.5947 14.98328839 39573,6950.196,96.107,574.144,569.979,0.0
49161.0,STARLINK-3080,PAYLOAD,2022-05-24 14:00:01,14.98330303,0.0003164,70.001,186.7896,273.8694,278.4798,0.00081018,9.587e-05,0.0,0 STARLINK-3080,1 49161U 21082AH  22144.58334491  .00009587  00000-0  81018-3 0  9994,2 49161  70.0010 186.7896 0003164 273.8694 278.4798 14.98330303 39572,6950.191999999999,96.107,574.256,569.8580000000002,0.0
49161.0,STARLINK-3080,PAYLOAD,2022-05-24 22:00:00,14.98292132,0.0003078,70.001,185.9492,268.2178,281.6321,0.0031031999999999,0.00037094,0.0,0 STARLINK-3080,1 49161U 21082AH  22144.91667824  .00037094  00000-0  31032-2 0  9994,2 49161  70.0010 185.9492 0003078 268.2178 281.6321 14.98292132  1309,6950.31,96.109,574.314,570.036,0.0
